$$SOE
2459580.500000000, A.D. 2022-Jan-01 00:00:00.0000, 1.552975152323241E+08, -6.500005103271570E+08, -8.655451171318710E+06,
2459587.500000000, A.D. 2022-Jan-08 00:00:00.0000, 1.631829940510952E+08, -6.495380415413592E+08, -9.329933692370176E+06,
2459594.500000000, A.D. 2022-Jan-15 00:00:00.0000, 1.710421297994227E+08, -6.489705638284415E+08, -1.000290852518588E+07,
2459601.500000000, A.D. 2022-Jan-22 00:00:00.0000, 1.788738308361487E+08, -6.482988328122888E+08, -1.067427745051080E+07,
2459608.500000000, A.D. 2022-Jan-29 00:00:00.0000, 1.866770227180430E+08, -6.475236033257824E+08, -1.134394354681700E+07,
2459615.500000000, A.D. 2022-Feb-05 00:00:00.0000, 1.944506456421735E+08, -6.466456299043102E+08, -1.201181101395413E+07,
2459622.500000000, A.D. 2022-Feb-12 00:00:00.0000, 2.021936540672409E+08, -6.456656683575441E+08, -1.267778528226855E+07,
2459629.500000000, A.D. 2022-Feb-19 00:00:00.0000, 2.099050171892587E+08, -6.445844760503243E+08, -1.334177309218657E+07,
2459636.500000000, A.D. 2022-Feb-26 00:00:00.0000, 2.175837189602216E+08, -6.434028116154575E+08, -1.400368248324046E+07,
2459643.500000000, A.D. 2022-Mar-05 00:00:00.0000, 2.252287578089790E+08, -6.421214347149880E+08, -1.466342275780436E+07,
2459650.500000000, A.D. 2022-Mar-12 00:00:00.0000, 2.328391462860847E+08, -6.407411059152349E+08, -1.532090444554967E+07,
2459657.500000000, A.D. 2022-Mar-19 00:00:00.0000, 2.404139107036371E+08, -6.392625866470606E+08, -1.597603927314821E+07,
2459664.500000000, A.D. 2022-Mar-26 00:00:00.0000, 2.479520907924907E+08, -6.376866392567538E+08, -1.662874014206314E+07,
2459671.500000000, A.D. 2022-Apr-02 00:00:00.0000, 2.554527394446687E+08, -6.360140272028236E+08, -1.727892112548113E+07,
2459678.500000000, A.D. 2022-Apr-09 00:00:00.0000, 2.629149228130954E+08, -6.342455153934309E+08, -1.792649750917062E+07,
2459685.500000000, A.D. 2022-Apr-16 00:00:00.0000, 2.703377211257900E+08, -6.323818700101192E+08, -1.857138585574651E+07,
2459692.500000000, A.D. 2022-Apr-23 00:00:00.0000, 2.777202289454412E+08, -6.304238567333513E+08, -1.921350388745970E+07,
2459699.500000000, A.D. 2022-Apr-30 00:00:00.0000, 2.850615530037748E+08, -6.283722396145594E+08, -1.985277019953278E+07,
2459706.500000000, A.D. 2022-May-07 00:00:00.0000, 2.923608106731651E+08, -6.262277825673548E+08, -2.048910424631783E+07,
2459713.500000000, A.D. 2022-May-14 00:00:00.0000, 2.996171304649547E+08, -6.239912504390582E+08, -2.112242647947696E+07,
2459720.500000000, A.D. 2022-May-21 00:00:00.0000, 3.068296525235482E+08, -6.216634089034898E+08, -2.175265838988310E+07,
2459727.500000000, A.D. 2022-May-28 00:00:00.0000, 3.139975286375978E+08, -6.192450241335094E+08, -2.237972248766235E+07,
2459734.500000000, A.D. 2022-Jun-04 00:00:00.0000, 3.211199220455265E+08, -6.167368625659252E+08, -2.300354227133906E+07,
2459741.500000000, A.D. 2022-Jun-11 00:00:00.0000, 3.281960071801521E+08, -6.141396907564451E+08, -2.362404219914046E+07,
2459748.500000000, A.D. 2022-Jun-18 00:00:00.0000, 3.352249693910703E+08, -6.114542753112016E+08, -2.424114766486824E+07,
2459755.500000000, A.D. 2022-Jun-25 00:00:00.0000, 3.422060046741158E+08, -6.086813829277142E+08, -2.485478498366690E+07,
2459762.500000000, A.D. 2022-Jul-02 00:00:00.0000, 3.491383195418195E+08, -6.058217806105918E+08, -2.546488140525219E+07,
2459769.500000000, A.D. 2022-Jul-09 00:00:00.0000, 3.560211314250925E+08, -6.028762358846072E+08, -2.607136517579728E+07,
2459776.500000000, A.D. 2022-Jul-16 00:00:00.0000, 3.628536695509244E+08, -5.998455159221179E+08, -2.667416555475831E+07,
2459783.500000000, A.D. 2022-Jul-23 00:00:00.0000, 3.696351740974817E+08, -5.967303855069699E+08, -2.727321257843301E+07,
2459790.500000000, A.D. 2022-Jul-30 00:00:00.0000, 3.763648937103183E+08, -5.935316071883457E+08, -2.786843685182273E+07,
2459797.500000000, A.D. 2022-Aug-06 00:00:00.0000, 3.830420849783559E+08, -5.902499429758292E+08, -2.845976964570153E+07,
2459804.500000000, A.D. 2022-Aug-13 00:00:00.0000, 3.896660130465907E+08, -5.868861548210100E+08, -2.904714299803817E+07,
2459811.500000000, A.D. 2022-Aug-20 00:00:00.0000, 3.962359517962615E+08, -5.834410043889812E+08, -2.963048971670631E+07,
2459818.500000000, A.D. 2022-Aug-27 00:00:00.0000, 4.027511836606069E+08, -5.799152528462366E+08, -3.020974334887415E+07,
2459825.500000000, A.D. 2022-Sep-03 00:00:00.0000, 4.092109993241064E+08, -5.763096607754288E+08, -3.078483814866519E+07,
2459832.500000000, A.D. 2022-Sep-10 00:00:00.0000, 4.156146973952434E+08, -5.726249881930090E+08, -3.135570904926994E+07,
2459839.500000000, A.D. 2022-Sep-17 00:00:00.0000, 4.219615840821029E+08, -5.688619946713951E+08, -3.192229164230189E+07,
2459846.500000000, A.D. 2022-Sep-24 00:00:00.0000, 4.282509729311287E+08, -5.650214396164016E+08, -3.248452217412531E+07,
2459853.500000000, A.D. 2022-Oct-01 00:00:00.0000, 4.344821848689820E+08, -5.611040827220570E+08, -3.304233758310494E+07,
2459860.500000000, A.D. 2022-Oct-08 00:00:00.0000, 4.406545489548827E+08, -5.571106840806677E+08, -3.359567557265002E+07,
2459867.500000000, A.D. 2022-Oct-15 00:00:00.0000, 4.467674029116877E+08, -5.530420027490797E+08, -3.414447453681687E+07,
2459874.500000000, A.D. 2022-Oct-22 00:00:00.0000, 4.528200912539375E+08, -5.488987954551519E+08, -3.468867327622974E+07,
2459881.500000000, A.D. 2022-Oct-29 00:00:00.0000, 4.588119635103825E+08, -5.446818180376533E+08, -3.522821094565523E+07,
2459888.500000000, A.D. 2022-Nov-05 00:00:00.0000, 4.647423746402863E+08, -5.403918268781285E+08, -3.576302720205668E+07,
2459895.500000000, A.D. 2022-Nov-12 00:00:00.0000, 4.706106856788213E+08, -5.360295790575001E+08, -3.629306226958489E+07,
2459902.500000000, A.D. 2022-Nov-19 00:00:00.0000, 4.764162638922248E+08, -5.315958321915962E+08, -3.681825693368319E+07,
2459909.500000000, A.D. 2022-Nov-26 00:00:00.0000, 4.821584827049051E+08, -5.270913443429623E+08, -3.733855252097628E+07,
2459916.500000000, A.D. 2022-Dec-03 00:00:00.0000, 4.878367215644606E+08, -5.225168740205123E+08, -3.785389088120738E+07,
2459923.500000000, A.D. 2022-Dec-10 00:00:00.0000, 4.934503657900130E+08, -5.178731802483424E+08, -3.836421437391892E+07,
2459930.500000000, A.D. 2022-Dec-17 00:00:00.0000, 4.989988064283577E+08, -5.131610227286528E+08, -3.886946586418867E+07,
2459937.500000000, A.D. 2022-Dec-24 00:00:00.0000, 5.044814402270510E+08, -5.083811621644500E+08, -3.936958874280131E+07,
2459944.500000000, A.D. 2022-Dec-31 00:00:00.0000, 5.098976700818752E+08, -5.035343606342358E+08, -3.986452699481535E+07,
2459951.500000000, A.D. 2023-Jan-07 00:00:00.0000, 5.152469060814088E+08, -4.986213810560676E+08, -4.035422524906331E+07,
2459958.500000000, A.D. 2023-Jan-14 00:00:00.0000, 5.205285651817785E+08, -4.936429852441795E+08, -4.083862858748561E+07,
2459965.500000000, A.D. 2023-Jan-21 00:00:00.0000, 5.257420688667470E+08, -4.885999337307602E+08, -4.131768231435776E+07,
2459972.500000000, A.D. 2023-Jan-28 00:00:00.0000, 5.308868424610496E+08, -4.834929875480899E+08, -4.179133203776073E+07,
2459979.500000000, A.D. 2023-Feb-04 00:00:00.0000, 5.359623158886588E+08, -4.783229089431951E+08, -4.225952379666725E+07,
2459986.500000000, A.D. 2023-Feb-11 00:00:00.0000, 5.409679240810088E+08, -4.730904612187529E+08, -4.272220408470830E+07,
2459993.500000000, A.D. 2023-Feb-18 00:00:00.0000, 5.459031069720377E+08, -4.677964085235016E+08, -4.317931983197969E+07,
2460000.500000000, A.D. 2023-Feb-25 00:00:00.0000, 5.507673093428991E+08, -4.624415157538894E+08, -4.363081838207433E+07,
2460007.500000000, A.D. 2023-Mar-04 00:00:00.0000, 5.555599806185899E+08, -4.570265485479790E+08, -4.407664747201473E+07,
2460014.500000000, A.D. 2023-Mar-11 00:00:00.0000, 5.602805746451633E+08, -4.515522733708680E+08, -4.451675521747708E+07,
2460021.500000000, A.D. 2023-Mar-18 00:00:00.0000, 5.649285494946231E+08, -4.460194577407874E+08, -4.495109011145365E+07,
2460028.500000000, A.D. 2023-Mar-25 00:00:00.0000, 5.695033675008492E+08, -4.404288706426972E+08, -4.537960105863291E+07,
2460035.500000000, A.D. 2023-Apr-01 00:00:00.0000, 5.740044959512397E+08, -4.347812827355628E+08, -4.580223745205998E+07,
2460042.500000000, A.D. 2023-Apr-08 00:00:00.0000, 5.784314078190173E+08, -4.290774651281193E+08, -4.621894913531792E+07,
2460049.500000000, A.D. 2023-Apr-15 00:00:00.0000, 5.827835801994147E+08, -4.233181878293579E+08, -4.662968612609965E+07,
2460056.500000000, A.D. 2023-Apr-22 00:00:00.0000, 5.870604922587489E+08, -4.175042209256065E+08, -4.703439851640779E+07,
2460063.500000000, A.D. 2023-Apr-29 00:00:00.0000, 5.912616254312689E+08, -4.116363362309818E+08, -4.743303661609113E+07,
2460070.500000000, A.D. 2023-May-06 00:00:00.0000, 5.953864641036972E+08, -4.057153076298518E+08, -4.782555103273275E+07,
2460077.500000000, A.D. 2023-May-13 00:00:00.0000, 5.994344958108239E+08, -3.997419110047960E+08, -4.821189267142072E+07,
2460084.500000000, A.D. 2023-May-20 00:00:00.0000, 6.034052111763691E+08, -3.937169242411005E+08, -4.859201271619028E+07,
2460091.500000000, A.D. 2023-May-27 00:00:00.0000, 6.072981037926296E+08, -3.876411273371660E+08, -4.896586261352120E+07,
2460098.500000000, A.D. 2023-Jun-03 00:00:00.0000, 6.111126700965233E+08, -3.815153025947950E+08, -4.933339406132175E+07,
2460105.500000000, A.D. 2023-Jun-10 00:00:00.0000, 6.148484092658038E+08, -3.753402349030907E+08, -4.969455900699009E+07,
2460112.500000000, A.D. 2023-Jun-17 00:00:00.0000, 6.185048232244302E+08, -3.691167121760036E+08, -5.004930966790929E+07,
2460119.500000000, A.D. 2023-Jun-24 00:00:00.0000, 6.220814170770168E+08, -3.628455258877711E+08, -5.039759859943412E+07,
2460126.500000000, A.D. 2023-Jul-01 00:00:00.0000, 6.255777002256150E+08, -3.565274708779702E+08, -5.073937876613012E+07,
2460133.500000000, A.D. 2023-Jul-08 00:00:00.0000, 6.289931864951774E+08, -3.501633436041711E+08, -5.107460339572631E+07,
2460140.500000000, A.D. 2023-Jul-15 00:00:00.0000, 6.323273919911138E+08, -3.437539416722752E+08, -5.140322573007266E+07,
$$EOE